OBJECT_NAME,OBJECT_ID,EPOCH,MEAN_MOTION,ECCENTRICITY,INCLINATION,RA_OF_ASC_NODE,ARG_OF_PERICENTER,MEAN_ANOMALY,EPHEMERIS_TYPE,CLASSIFICATION_TYPE,NORAD_CAT_ID,ELEMENT_SET_NO,REV_AT_EPOCH,BSTAR,MEAN_MOTION_DOT,MEAN_MOTION_DDOT
ONEWEB-0721,2023-068R,2026-07-21T02:39:35.559936,13.22471487,.00017294,86.6736,74.6852,80.5753,279.5576,0,U,56725,999,16242,.86337327E-4,.5E-6,0
ONEWEB-0015,2024-188A,2026-07-21T04:26:43.477152,13.11415934,.00013666,87.8886,14.3220,80.8823,279.2459,0,U,61594,999,8891,-.40408803E-3,-.131E-5,0
ONEWEB-0687,2024-188B,2026-07-20T22:42:52.130880,13.17647511,.00018212,87.9148,359.1594,78.3585,281.7751,0,U,61595,999,9034,-.98496828E-4,-.25E-6,0
ONEWEB-0688,2024-188C,2026-07-21T03:02:51.700128,13.17648092,.00008532,87.9148,359.1233,61.0729,299.0488,0,U,61596,999,9036,.32953809E-3,.141E-5,0
ONEWEB-0689,2024-188D,2026-07-20T23:45:57.345984,13.11419098,.00020353,87.8897,14.3238,84.6189,275.5171,0,U,61597,999,8888,.25520417E-3,.103E-5,0
ONEWEB-0690,2024-188E,2026-07-21T05:30:13.505472,13.11418240,.00017994,87.8897,14.2864,112.1197,248.0122,0,U,61598,999,8909,.11862526E-2,.433E-5,0
ONEWEB-0691,2024-188F,2026-07-20T23:53:18.000672,13.11418125,.00015787,87.8910,14.2444,80.7131,279.4175,0,U,61599,999,8891,.83198448E-3,.308E-5,0
ONEWEB-0692,2024-188G,2026-07-21T05:52:10.955136,13.11416291,.00026299,87.8889,14.3021,91.8797,268.2632,0,U,61600,999,8893,.12932422E-2,.471E-5,0
ONEWEB-0693,2024-188H,2026-07-20T23:41:11.451840,13.17648486,.0001668,87.9145,359.1696,120.0950,240.0347,0,U,61601,999,9033,-.20790863E-3,-.68E-6,0
ONEWEB-0695,2024-188J,2026-07-20T23:48:24.529248,13.11418797,.00023261,87.8886,14.3444,85.4017,274.7377,0,U,61602,999,8889,.47031795E-3,.179E-5,0
ONEWEB-0697,2024-188K,2026-07-21T00:34:47.761824,13.11415049,.00026089,87.8889,14.3286,94.0385,266.1041,0,U,61603,999,8888,.27348747E-3,.11E-5,0
ONEWEB-0698,2024-188L,2026-07-21T05:32:40.211808,13.11417828,.0002708,87.8885,14.3008,112.7729,247.3686,0,U,61604,999,8893,.14388892E-2,.523E-5,0
ONEWEB-0699,2024-188M,2026-07-21T06:29:49.050240,13.10374863,.00025003,87.8821,29.4728,93.9618,266.1795,0,U,61605,999,8777,.10926581E-2,.394E-5,0
ONEWEB-0700,2024-188N,2026-07-21T06:32:16.560960,13.10368454,.00024122,87.8838,29.3872,92.7767,267.3637,0,U,61606,999,8776,.40845604E-2,.1439E-4,0
ONEWEB-0701,2024-188P,2026-07-21T01:26:50.097120,13.10369918,.00026316,87.8818,29.5153,95.7825,264.3602,0,U,61607,999,8774,.11852422E-2,.426E-5,0
ONEWEB-0702,2024-188Q,2026-07-21T04:48:42.375744,13.11416756,.0002881,87.8908,14.2191,89.1178,271.0280,0,U,61608,999,8894,-.16962994E-2,-.588E-5,0
ONEWEB-0704,2024-188R,2026-07-21T06:39:35.459136,13.10372564,.00028594,87.8825,29.4621,84.8839,275.2615,0,U,61609,999,8775,.18455896E-2,.657E-5,0
ONEWEB-0705,2024-188S,2026-07-21T01:17:03.918048,13.10371338,.00025455,87.8826,29.5128,69.6880,290.4521,0,U,61610,999,7989,.17075432E-2,.609E-5,0
ONEWEB-0706,2024-188T,2026-07-21T06:24:55.546848,13.10373187,.00024667,87.8820,29.4735,82.7492,277.3915,0,U,61611,999,8784,.24413527E-2,.865E-5,0
ONEWEB-0707,2024-188U,2026-07-21T01:04:49.997568,13.10372579,.00023948,87.8826,29.5135,84.0338,276.1062,0,U,61612,999,8775,.16976275E-2,.605E-5,0
ONEWEB-0708,2024-188V,2026-07-21T01:31:42.255264,13.10368757,.00018593,87.8814,29.5253,71.3402,288.7927,0,U,61613,999,8773,.77001101E-3,.281E-5,0
