ONEWEB-0721             
1 56725U 23068R   26202.11082824  .00000050  00000+0  86337-4 0  9997
2 56725  86.6736  74.6852 0001729  80.5753 279.5576 13.22471487162427
ONEWEB-0015             
1 61594U 24188A   26202.18522543 -.00000131  00000+0 -40409-3 0  9996
2 61594  87.8886  14.3220 0001366  80.8823 279.2459 13.11415934 88915
ONEWEB-0687             
1 61595U 24188B   26201.94643670 -.00000025  00000+0 -98497-4 0  9998
2 61595  87.9148 359.1594 0001821  78.3585 281.7751 13.17647511 90342
ONEWEB-0688             
1 61596U 24188C   26202.12698727  .00000141  00000+0  32954-3 0  9995
2 61596  87.9148 359.1233 0000853  61.0729 299.0488 13.17648092 90362
ONEWEB-0689             
1 61597U 24188D   26201.99024706  .00000103  00000+0  25520-3 0  9999
2 61597  87.8897  14.3238 0002035  84.6189 275.5171 13.11419098 88881
ONEWEB-0690             
1 61598U 24188E   26202.22932298  .00000433  00000+0  11863-2 0  9991
2 61598  87.8897  14.2864 0001799 112.1197 248.0122 13.11418240 89091
ONEWEB-0691             
1 61599U 24188F   26201.99534723  .00000308  00000+0  83198-3 0  9998
2 61599  87.8910  14.2444 0001578  80.7131 279.4175 13.11418125 88913
ONEWEB-0692             
1 61600U 24188G   26202.24457124  .00000471  00000+0  12932-2 0  9997
2 61600  87.8889  14.3021 0002629  91.8797 268.2632 13.11416291 88930
ONEWEB-0693             
1 61601U 24188H   26201.98693810 -.00000068  00000+0 -20791-3 0  9999
2 61601  87.9145 359.1696 0001668 120.0950 240.0347 13.17648486 90330
ONEWEB-0695             
1 61602U 24188J   26201.99195057  .00000179  00000+0  47032-3 0  9999
2 61602  87.8886  14.3444 0002326  85.4017 274.7377 13.11418797 88892
ONEWEB-0697             
1 61603U 24188K   26202.02416391  .00000110  00000+0  27349-3 0  9996
2 61603  87.8889  14.3286 0002608  94.0385 266.1041 13.11415049 88886
ONEWEB-0698             
1 61604U 24188L   26202.23102097  .00000523  00000+0  14389-2 0  9992
2 61604  87.8885  14.3008 0002708 112.7729 247.3686 13.11417828 88935
ONEWEB-0699             
1 61605U 24188M   26202.27070660  .00000394  00000+0  10927-2 0  9997
2 61605  87.8821  29.4728 0002500  93.9618 266.1795 13.10374863 87770
ONEWEB-0700             
1 61606U 24188N   26202.27241390  .00001439  00000+0  40846-2 0  9992
2 61606  87.8838  29.3872 0002412  92.7767 267.3637 13.10368454 87768
ONEWEB-0701             
1 61607U 24188P   26202.06030205  .00000426  00000+0  11852-2 0  9991
2 61607  87.8818  29.5153 0002631  95.7825 264.3602 13.10369918 87745
ONEWEB-0702             
1 61608U 24188Q   26202.20049046 -.00000588  00000+0 -16963-2 0  9990
2 61608  87.8908  14.2191 0002881  89.1178 271.0280 13.11416756 88948
ONEWEB-0704             
1 61609U 24188R   26202.27749374  .00000657  00000+0  18456-2 0  9993
2 61609  87.8825  29.4621 0002859  84.8839 275.2615 13.10372564 87757
ONEWEB-0705             
1 61610U 24188S   26202.05351757  .00000609  00000+0  17075-2 0  9998
2 61610  87.8826  29.5128 0002545  69.6880 290.4521 13.10371338 79891
ONEWEB-0706             
1 61611U 24188T   26202.26730957  .00000865  00000+0  24414-2 0  9994
2 61611  87.8820  29.4735 0002466  82.7492 277.3915 13.10373187 87845
ONEWEB-0707             
1 61612U 24188U   26202.04502312  .00000605  00000+0  16976-2 0  9999
2 61612  87.8826  29.5135 0002394  84.0338 276.1062 13.10372579 87755
ONEWEB-0708             
1 61613U 24188V   26202.06368351  .00000281  00000+0  77001-3 0  9992
2 61613  87.8814  29.5253 0001859  71.3402 288.7927 13.10368757 87730
